NAVSTAR 48 (USA 151)    
1 26407U 00040A   26168.29730689  .00000040  00000+0  00000+0 0  9992
2 26407  54.8513 215.1579 0121038 302.4732  60.8472  2.00557636189956
NAVSTAR 51 (USA 166)    
1 27663U 03005A   26168.23687316  .00000041  00000+0  00000+0 0  9994
2 27663  54.8821 214.9670 0147928  53.0827  42.5968  2.00560527171313
NAVSTAR 54 (USA 177)    
1 28190U 04009A   26168.40442231 -.00000037  00000+0  00000+0 0  9995
2 28190  54.8295 275.6785 0116158 173.0888 196.7015  2.00554656162957
NAVSTAR 56 (USA 180)    
1 28474U 04045A   26168.32573105 -.00000084  00000+0  00000+0 0  9998
2 28474  55.1354 324.8903 0169864 316.4138  61.5041  2.00555797158437
NAVSTAR 57 (USA 183)    
1 28874U 05038A   26168.35669388 -.00000033  00000+0  00000+0 0  9991
2 28874  54.8779 273.1707 0127864 296.1609  67.8202  2.00565592151847
INMARSAT 4-F2           
1 28899U 05044A   26167.57065603 -.00000266  00000+0  00000+0 0  9996
2 28899   5.0944  43.7017 0002784  34.7252 175.3347  1.00270373 75517
NAVSTAR 58 (USA 190)    
1 29486U 06042A   26168.12940993  .00000046  00000+0  00000+0 0  9999
2 29486  54.7108 151.3412 0106617  54.4149  43.9226  2.00569795144391
NAVSTAR 59 (USA 192)    
1 29601U 06052A   26167.42124558  .00000054  00000+0  00000+0 0  9991
2 29601  54.9348 214.0365 0085218  90.8278 270.2339  2.00557832143390
NAVSTAR 60 (USA 196)    
1 32260U 07047A   26167.22762417 -.00000035  00000+0  00000+0 0  9991
2 32260  54.0946  80.1052 0166743  87.3620 274.5508  2.00555202136790
COSMOS 2433 [GLONASS-M] 
1 32275U 07052A   26167.91561733 -.00000055  00000+0  00000+0 0  9999
2 32275  65.5769 315.9430 0002480 193.3676 166.6110  2.13104055145050
COSMOS 2432 [GLONASS-M] 
1 32276U 07052B   26167.51638169 -.00000055  00000+0  00000+0 0  9994
2 32276  65.5946 316.0841 0007678 331.5202  26.0613  2.13103061145065
NAVSTAR 61 (USA 199)    
1 32384U 07062A   26167.53498160 -.00000029  00000+0  00000+0 0  9993
2 32384  55.0322 274.1789 0035702 165.2122 184.0447  2.00560015135492
COSMOS 2434 [GLONASS-M] 
1 32393U 07065A   26168.15492016  .00000065  00000+0  00000+0 0  9998
2 32393  64.3178 191.9169 0001197 336.0402  97.3647  2.13101292143772
COSMOS 2436 [GLONASS-M] 
1 32395U 07065C   26164.25890233  .00000116  00000+0  00000+0 0  9997
2 32395  64.3263 192.1203 0017212 354.2143 102.6396  2.13100224143641
NAVSTAR 62 (USA 201)    
1 32711U 08012A   26168.13613132  .00000044  00000+0  00000+0 0  9994
2 32711  54.4974 149.9267 0211257 247.8479 109.8706  2.00572367133758
NAVSTAR 64 (USA 206)    
1 35752U 09043A   26167.28361034 -.00000073  00000+0  00000+0 0  9996
2 35752  56.2097  27.4871 0053768  83.1336  31.1253  2.00554227123340
COSMOS 2456 [GLONASS-M] 
1 36111U 09070A   26167.15434897 -.00000023  00000+0  00000+0 0  9995
2 36111  65.0107  71.0074 0004655 330.9231 213.0207  2.13103756128401
COSMOS 2457 [GLONASS-M] 
1 36112U 09070B   26168.33070191 -.00000023  00000+0  00000+0 0  9990
2 36112  64.9968  70.8113 0002888 122.9969  10.8129  2.13101091128438
COSMOS 2460 [GLONASS-M] 
1 36402U 10007C   26164.86672859 -.00000052  00000+0  00000+0 0  9999
2 36402  65.4226 314.5793 0002121 106.9290 251.4243  2.13101719126653
NAVSTAR 65 (USA 213)    
1 36585U 10022A   26167.52380442  .00000055  00000+0  00000+0 0  9990
2 36585  54.2702 208.5888 0126308  66.1160 340.2016  2.00562332117589
BEIDOU-2 IGSO-1         
1 36828U 10036A   26166.92185411 -.00000073  00000+0  00000+0 0  9998
2 36828  54.3019 162.9711 0059298 225.1772 315.5729  1.00272283 58085
BEIDOU-2 G4             
1 37210U 10057A   26168.01360174 -.00000118  00000+0  00000+0 0  9990
2 37210   3.6462  68.9422 0005307 196.5483 164.6792  1.00270672 57291
BEIDOU-2 IGSO-2         
1 37256U 10068A   26166.85415660 -.00000214  00000+0  00000+0 0  9990
2 37256  47.5513 271.8488 0055907 212.6889 194.9404  1.00282881 56787
BEIDOU-2 IGSO-3         
1 37384U 11013A   26165.58618677 -.00000189  00000+0  00000+0 0  9996
2 37384  62.4034  40.1764 0034371 184.2029 357.3112  1.00267759 55630
GSAT-8                  
1 37605U 11022A   26167.93330914  .00000080  00000+0  00000+0 0  9997
2 37605   2.1309  81.8310 0002231 199.7115  14.7281  1.00271222 53211
BEIDOU-2 IGSO-4         
1 37763U 11038A   26167.68545095  .00000019  00000+0  00000+0 0  9991
2 37763  54.6000 165.6770 0159519 231.4431 207.9860  1.00285273 54642
GSAT0101 (GALILEO-PFM)  
1 37846U 11060A   26163.74233043 -.00000071  00000+0  00000+0 0  9997
2 37846  56.9957 341.8816 0003117  51.3749 308.6629  1.70475562 91048
GSAT0102 (GALILEO-FM2)  
1 37847U 11060B   26166.59146788 -.00000084  00000+0  00000+0 0  9997
2 37847  56.9958 341.8048 0003167  14.2663 339.9688  1.70475803 91090
COSMOS 2476 [GLONASS-M] 
1 37867U 11064A   26168.17537201 -.00000021  00000+0  00000+0 0  9994
2 37867  65.2699  72.8721 0022708 238.8351 276.7340  2.13103764113760
COSMOS 2477 [GLONASS-M] 
1 37868U 11064B   26167.50523912 -.00000021  00000+0  00000+0 0  9995
2 37868  65.2758  72.9741 0019811 240.2954 301.5120  2.13102984113741
COSMOS 2475 [GLONASS-M] 
1 37869U 11064C   26164.21303852 -.00000031  00000+0  00000+0 0  9991
2 37869  65.2809  73.1067 0025589 253.3203 237.9576  2.13101955113681
